OBJECT_NAME,OBJECT_ID,EPOCH,MEAN_MOTION,ECCENTRICITY,INCLINATION,RA_OF_ASC_NODE,ARG_OF_PERICENTER,MEAN_ANOMALY,EPHEMERIS_TYPE,CLASSIFICATION_TYPE,NORAD_CAT_ID,ELEMENT_SET_NO,REV_AT_EPOCH,BSTAR,MEAN_MOTION_DOT,MEAN_MOTION_DDOT
STARLINK-3521,2022-016AE,2026-07-04T14:00:01.999872,15.25548741,.00016828,53.1594,153.6535,87.7432,51.3661,0,U,51742,999,564,.48067272E-1,.1339377E-1,0
STARLINK-3512,2022-016AF,2026-07-04T14:00:01.999872,15.24851457,.0001462,53.1610,143.4776,82.0661,4.6998,0,U,51743,999,564,.45139562E-2,.115055E-2,0
STARLINK-3452,2022-016AG,2026-07-04T14:00:01.999872,15.25126444,.00010169,53.1608,153.4764,96.8914,169.7531,0,U,51744,999,569,.45945516E-1,.1277121E-1,0
STARLINK-3449,2022-016AH,2026-07-04T14:00:01.999872,15.24146002,.00014145,53.1589,153.5386,92.4120,66.3027,0,U,51745,999,574,.48988819E-1,.1327409E-1,0
STARLINK-3502,2022-016AJ,2026-07-04T14:00:01.999872,15.17719530,.00013574,53.1597,143.9933,110.4241,88.0718,0,U,51746,999,565,.45688268E-1,.1002767E-1,0
STARLINK-3446,2022-016AK,2026-07-04T14:00:01.999872,15.26905129,.00008167,53.1609,153.4231,84.2833,193.7788,0,U,51747,999,574,.47368779E-1,.1378178E-1,0
STARLINK-3501,2022-016AL,2026-07-04T14:00:01.999872,15.25799716,.00014248,53.1610,143.4115,93.3247,86.8972,0,U,51748,999,574,.48912151E-1,.1376363E-1,0
STARLINK-3451,2022-016AM,2026-07-04T14:00:01.999872,15.29127165,.00017129,53.1603,153.4253,76.1608,35.5689,0,U,51749,999,569,.48073257E-2,.140016E-2,0
STARLINK-3505,2022-016AN,2026-07-04T14:00:01.999872,15.16110726,.00014263,53.1594,144.0546,115.7287,132.8096,0,U,51750,999,569,.53926996E-1,.1142412E-1,0
STARLINK-3506,2022-016AP,2026-07-04T14:00:01.999872,15.26857312,.00013587,53.1608,143.3579,92.7358,94.7250,0,U,51751,999,565,.42058009E-1,.1226723E-1,0
STARLINK-3511,2022-016AQ,2026-07-04T07:07:22.813248,15.31712427,.00012088,53.1619,142.8336,82.0135,278.1004,0,U,51752,999,24134,.39231963E-4,.853E-5,0
STARLINK-3507,2022-016AR,2026-07-04T14:00:01.999872,15.25623107,.00015045,53.1608,143.4125,76.3778,122.7959,0,U,51753,999,580,.18509818E-1,.510963E-2,0
STARLINK-3457,2022-016AS,2026-07-04T14:00:01.999872,15.22935396,.00010467,53.1590,143.3942,95.3271,187.8968,0,U,51754,999,575,.54451001E-1,.1410411E-1,0
STARLINK-3460,2022-016AT,2026-07-04T14:00:01.999872,15.25205733,.00012201,53.1608,143.4810,98.4830,125.8327,0,U,51755,999,574,.49328153E-1,.1362518E-1,0
STARLINK-3513,2022-016AU,2026-07-04T14:00:01.999872,15.25517098,.00014576,53.1602,143.4799,86.2405,298.8700,0,U,51756,999,575,.50381279E-1,.1408565E-1,0
STARLINK-3459,2022-016AV,2026-07-04T14:00:01.999872,15.25585556,.0001654,53.1608,143.4610,80.3346,334.0551,0,U,51757,999,575,.50368062E-1,.1411285E-1,0
STARLINK-3458,2022-016AW,2026-07-04T14:00:01.999872,15.23879191,.00015246,53.1608,143.4851,70.9854,346.0418,0,U,51758,999,570,.3525042E-1,.931799E-2,0
STARLINK-3456,2022-016AX,2026-07-04T14:00:01.999872,15.25782875,.00017047,53.1611,143.4115,92.0538,8.5376,0,U,51759,999,575,.49555313E-1,.139535E-1,0
STARLINK-3622,2022-017A,2026-07-04T14:00:01.999872,15.11884829,.00011176,53.1596,174.1416,104.0152,172.4920,0,U,51768,999,564,.60400488E-1,.113647E-1,0
STARLINK-3621,2022-017B,2026-07-04T08:41:00.122208,15.10050587,.00017322,53.2148,175.0114,52.7356,307.3795,0,U,51769,999,24022,.6664411E-3,.1069E-3,0
STARLINK-3612,2022-017C,2026-07-04T06:22:19.830720,15.09203591,.0001363,53.1592,175.5866,80.6224,279.4921,0,U,51770,999,24021,.28496068E-2,.45816E-3,0
STARLINK-3614,2022-017D,2026-07-04T14:00:01.999872,15.11956624,.00009135,53.1604,174.1248,74.4461,265.6824,0,U,51771,999,574,.55502781E-1,.1038796E-1,0
STARLINK-3623,2022-017E,2026-07-04T09:12:30.636288,15.08836782,.00012259,53.1596,175.0593,74.3686,285.7440,0,U,51772,999,24021,.40044065E-4,.349E-5,0
STARLINK-3624,2022-017F,2026-07-03T17:18:01.395936,15.09238265,.00013246,53.1845,178.0361,59.5804,300.5319,0,U,51773,999,24012,.25078578E-3,.3748E-4,0
STARLINK-3629,2022-017G,2026-07-04T09:01:54.996672,15.08836865,.0001232,53.1596,175.0939,75.1042,285.0086,0,U,51774,999,24018,.40037083E-4,.349E-5,0
STARLINK-3620,2022-017H,2026-07-04T14:00:01.999872,15.70566119,.00009287,53.2171,156.4489,103.7011,28.2741,0,U,51775,999,576,.48862541E-2,.664473E-2,0
STARLINK-3608,2022-017J,2026-07-04T05:45:50.955840,15.08834425,.0001092,53.1590,175.7047,86.0889,274.0228,0,U,51776,999,24016,.11255007E-4,-.109E-5,0
STARLINK-3625,2022-017K,2026-07-04T09:03:03.034944,15.09007573,.00025585,53.1595,175.0594,85.0776,275.0508,0,U,51777,999,24021,.1393425E-2,.22061E-3,0
STARLINK-3615,2022-017L,2026-07-04T09:08:32.166240,15.08825981,.00015391,53.1601,164.9486,87.7201,272.3967,0,U,51778,999,24017,-.12553465E-4,-.488E-5,0
STARLINK-3611,2022-017M,2026-07-04T05:46:32.220480,15.09299334,.00008011,53.1591,175.7469,64.0885,296.0190,0,U,51779,999,24016,.36183397E-2,.58512E-3,0
