STARLINK-3521           
1 51742U 22016AE  26185.58335648  .01339377  00000+0  48067-1 0  9992
2 51742  53.1594 153.6535 0001682  87.7432  51.3661 15.25548741  5643
STARLINK-3512           
1 51743U 22016AF  26185.58335648  .00115055  00000+0  45140-2 0  9997
2 51743  53.1610 143.4776 0001462  82.0661   4.6998 15.24851457  5649
STARLINK-3452           
1 51744U 22016AG  26185.58335648  .01277121  00000+0  45946-1 0  9995
2 51744  53.1608 153.4764 0001016  96.8914 169.7531 15.25126444  5697
STARLINK-3449           
1 51745U 22016AH  26185.58335648  .01327409  00000+0  48989-1 0  9991
2 51745  53.1589 153.5386 0001414  92.4120  66.3027 15.24146002  5749
STARLINK-3502           
1 51746U 22016AJ  26185.58335648  .01002767  00000+0  45688-1 0  9992
2 51746  53.1597 143.9933 0001357 110.4241  88.0718 15.17719530  5653
STARLINK-3446           
1 51747U 22016AK  26185.58335648  .01378178  00000+0  47369-1 0  9993
2 51747  53.1609 153.4231 0000816  84.2833 193.7788 15.26905129  5741
STARLINK-3501           
1 51748U 22016AL  26185.58335648  .01376363  00000+0  48912-1 0  9993
2 51748  53.1610 143.4115 0001424  93.3247  86.8972 15.25799716  5749
STARLINK-3451           
1 51749U 22016AM  26185.58335648  .00140016  00000+0  48073-2 0  9996
2 51749  53.1603 153.4253 0001712  76.1608  35.5689 15.29127165  5693
STARLINK-3505           
1 51750U 22016AN  26185.58335648  .01142412  00000+0  53927-1 0  9994
2 51750  53.1594 144.0546 0001426 115.7287 132.8096 15.16110726  5694
STARLINK-3506           
1 51751U 22016AP  26185.58335648  .01226723  00000+0  42058-1 0  9996
2 51751  53.1608 143.3579 0001358  92.7358  94.7250 15.26857312  5650
STARLINK-3511           
1 51752U 22016AQ  26185.29679182  .00000853  00000+0  39232-4 0  9995
2 51752  53.1619 142.8336 0001208  82.0135 278.1004 15.31712427241343
STARLINK-3507           
1 51753U 22016AR  26185.58335648  .00510963  00000+0  18510-1 0  9995
2 51753  53.1608 143.4125 0001504  76.3778 122.7959 15.25623107  5804
STARLINK-3457           
1 51754U 22016AS  26185.58335648  .01410411  00000+0  54451-1 0  9998
2 51754  53.1590 143.3942 0001046  95.3271 187.8968 15.22935396  5750
STARLINK-3460           
1 51755U 22016AT  26185.58335648  .01362518  00000+0  49328-1 0  9990
2 51755  53.1608 143.4810 0001220  98.4830 125.8327 15.25205733  5743
STARLINK-3513           
1 51756U 22016AU  26185.58335648  .01408565  00000+0  50381-1 0  9995
2 51756  53.1602 143.4799 0001457  86.2405 298.8700 15.25517098  5756
STARLINK-3459           
1 51757U 22016AV  26185.58335648  .01411285  00000+0  50368-1 0  9994
2 51757  53.1608 143.4610 0001654  80.3346 334.0551 15.25585556  5754
STARLINK-3458           
1 51758U 22016AW  26185.58335648  .00931799  00000+0  35250-1 0  9994
2 51758  53.1608 143.4851 0001524  70.9854 346.0418 15.23879191  5706
STARLINK-3456           
1 51759U 22016AX  26185.58335648  .01395350  00000+0  49555-1 0  9996
2 51759  53.1611 143.4115 0001704  92.0538   8.5376 15.25782875  5750
STARLINK-3622           
1 51768U 22017A   26185.58335648  .01136470  00000+0  60400-1 0  9995
2 51768  53.1596 174.1416 0001117 104.0152 172.4920 15.11884829  5642
STARLINK-3621           
1 51769U 22017B   26185.36180697  .00010690  00000+0  66644-3 0  9996
2 51769  53.2148 175.0114 0001732  52.7356 307.3795 15.10050587240229
STARLINK-3612           
1 51770U 22017C   26185.26550730  .00045816  00000+0  28496-2 0  9996
2 51770  53.1592 175.5866 0001363  80.6224 279.4921 15.09203591240218
STARLINK-3614           
1 51771U 22017D   26185.58335648  .01038796  00000+0  55503-1 0  9999
2 51771  53.1604 174.1248 0000913  74.4461 265.6824 15.11956624  5747
STARLINK-3623           
1 51772U 22017E   26185.38368792  .00000349  00000+0  40044-4 0  9993
2 51772  53.1596 175.0593 0001225  74.3686 285.7440 15.08836782240214
STARLINK-3624           
1 51773U 22017F   26184.72084949  .00003748  00000+0  25079-3 0  9996
2 51773  53.1845 178.0361 0001324  59.5804 300.5319 15.09238265240129
STARLINK-3629           
1 51774U 22017G   26185.37633098  .00000349  00000+0  40037-4 0  9990
2 51774  53.1596 175.0939 0001232  75.1042 285.0086 15.08836865240180
STARLINK-3620           
1 51775U 22017H   26185.58335648  .00664473  00000+0  48863-2 0  9991
2 51775  53.2171 156.4489 0000928 103.7011  28.2741 15.70566119  5768
STARLINK-3608           
1 51776U 22017J   26185.24017310 -.00000109  00000+0  11255-4 0  9996
2 51776  53.1590 175.7047 0001092  86.0889 274.0228 15.08834425240161
STARLINK-3625           
1 51777U 22017K   26185.37711846  .00022061  00000+0  13934-2 0  9990
2 51777  53.1595 175.0594 0002558  85.0776 275.0508 15.09007573240214
STARLINK-3615           
1 51778U 22017L   26185.38092785 -.00000488  00000+0 -12553-4 0  9995
2 51778  53.1601 164.9486 0001539  87.7201 272.3967 15.08825981240174
STARLINK-3611           
1 51779U 22017M   26185.24065070  .00058512  00000+0  36183-2 0  9990
2 51779  53.1591 175.7469 0000801  64.0885 296.0190 15.09299334240169
